[{"OBJECT_NAME":"STARLINK-5123","OBJECT_ID":"2022-125R","EPOCH":"2026-03-09T16:45:17.933472","MEAN_MOTION":15.08824756,"ECCENTRICITY":0.00011894,"INCLINATION":53.2172,"RA_OF_ASC_NODE":219.0753,"ARG_OF_PERICENTER":71.5761,"MEAN_ANOMALY":288.536,"EPHEMERIS_TYPE":0,"CLASSIFICATION_TYPE":"U","NORAD_CAT_ID":53979,"ELEMENT_SET_NO":999,"REV_AT_EPOCH":18939,"BSTAR":8.669613e-5,"MEAN_MOTION_DOT":1.092e-5,"MEAN_MOTION_DDOT":0},{"OBJECT_NAME":"PEGASUS DEB","OBJECT_ID":"1994-029ACN","EPOCH":"2026-03-09T14:54:52.276896","MEAN_MOTION":14.88956192,"ECCENTRICITY":0.0150975,"INCLINATION":81.572,"RA_OF_ASC_NODE":286.6806,"ARG_OF_PERICENTER":308.5515,"MEAN_ANOMALY":50.2248,"EPHEMERIS_TYPE":0,"CLASSIFICATION_TYPE":"U","NORAD_CAT_ID":24980,"ELEMENT_SET_NO":999,"REV_AT_EPOCH":53329,"BSTAR":0.0016647,"MEAN_MOTION_DOT":0.00019427,"MEAN_MOTION_DDOT":0}]
